     3.00           N                   E                   RINEX VERSION / TYPE
BRD_USR             ESA                 20190113 021752  UTCPGM / RUN BY / DATE
 GAL   3.7000E+01  1.3672E-01  3.0518E-04  0.0000E+00       IONOSPHERIC CORR
GAUT  2.7939677238E-09-1.776356839E-15 518400 2035 GSTB   0 TIME SYSTEM CORR
GPGA  8.7311491370E-11-3.108624469E-15      0 2036 GSTB   0 TIME SYSTEM CORR
                                                            END OF HEADER
E05 2019 01 12 23 40 00 1.260911813006E-04-6.480149750132E-12 0.000000000000E+00
     1.100000000000E+02-3.968750000000E+01 3.145131007331E-09 9.194239986372E-01
    -1.763924956322E-06 1.343765761703E-04 1.174584031105E-05 5.440620834351E+03
     6.036000000000E+05 3.352761268616E-08 1.241205566337E+00-7.450580596924E-09
     9.524654985597E-01 8.112500000000E+01 1.622603455193E+00-5.572732126661E-09
     6.321691895271E-11 5.210000000000E+02 2.035000000000E+03 0.000000000000E+00
     3.120000000000E+00 0.000000000000E+00-1.396983861923E-09-1.629814505577E-09
     6.048250000000E+05 0.000000000000E+00 0.000000000000E+00 0.000000000000E+00
E07 2019 01 12 23 40 00-1.114642946050E-04-7.077005648171E-12 0.000000000000E+00
     1.100000000000E+02-2.890625000000E+01 3.083699877049E-09 1.921710562158E-01
    -1.272186636925E-06 1.370400423184E-04 1.053325831890E-05 5.440623188019E+03
     6.036000000000E+05 1.303851604462E-08 1.241222341618E+00 1.490116119385E-08
     9.524961291384E-01 1.106875000000E+02-8.050527428210E-03-5.518801308798E-09
     1.432202514126E-10 5.210000000000E+02 2.035000000000E+03 0.000000000000E+00
     3.120000000000E+00 0.000000000000E+00 2.328306436539E-10 2.328306436539E-10
     6.048250000000E+05 0.000000000000E+00 0.000000000000E+00 0.000000000000E+00
E08 2019 01 12 23 40 00 6.424601364415E-03-7.460698725481E-12 0.000000000000E+00
     1.100000000000E+02-4.540625000000E+01 3.064770517137E-09 5.133306964783E-01
    -2.086162567139E-06 2.145197940990E-04 1.044385135174E-05 5.440619073868E+03
     6.036000000000E+05-5.587935447693E-08 1.232612618143E+00 7.450580596924E-09
     9.584395176416E-01 1.157500000000E+02 4.573937093811E-01-5.453441443440E-09
     9.464679956196E-11 5.210000000000E+02 2.035000000000E+03 0.000000000000E+00
     3.120000000000E+00 0.000000000000E+00-8.614733815193E-09-1.001171767712E-08
     6.048250000000E+05 0.000000000000E+00 0.000000000000E+00 0.000000000000E+00
E09 2019 01 12 23 40 00 6.560033885762E-03-1.136868377216E-11 0.000000000000E+00
     1.100000000000E+02-3.287500000000E+01 3.019411484894E-09-3.045913091832E+00
    -1.493841409683E-06 2.382892416790E-04 1.197122037411E-05 5.440621955872E+03
     6.036000000000E+05 2.980232238770E-08 1.232610156052E+00 1.303851604462E-08
     9.584690071442E-01 8.090625000000E+01 8.837658693101E-02-5.494514582873E-09
     7.678891285216E-11 5.210000000000E+02 2.035000000000E+03 0.000000000000E+00
     3.120000000000E+00 0.000000000000E+00-3.492459654808E-09-4.190951585770E-09
     6.048250000000E+05 0.000000000000E+00 0.000000000000E+00 0.000000000000E+00
E11 2019 01 12 23 40 00 5.719669105019E-03 7.815970093361E-13 0.000000000000E+00
     1.100000000000E+02 3.293750000000E+01 2.939050994700E-09-5.147144999478E-01
     1.458451151848E-06 2.769604325294E-04 5.707144737244E-06 5.440600101471E+03
     6.036000000000E+05 5.774199962616E-08-8.641057761483E-01-1.117587089539E-08
     9.819366562088E-01 2.298125000000E+02-3.469860472359E-01-5.683808181996E-09
     1.928651764659E-10 5.210000000000E+02 2.035000000000E+03 0.000000000000E+00
     3.120000000000E+00 0.000000000000E+00-1.839362084866E-08-2.002343535423E-08
     6.048250000000E+05 0.000000000000E+00 0.000000000000E+00 0.000000000000E+00
E12 2019 01 12 23 40 00 5.929331760854E-03 8.439826615358E-11 0.000000000000E+00
     1.100000000000E+02 3.071875000000E+01 2.953337304067E-09 7.901141314479E-01
     1.313164830208E-06 4.005994414911E-04 4.727393388748E-06 5.440604906082E+03
     6.036000000000E+05 5.401670932770E-08-8.641213971876E-01 1.303851604462E-08
     9.819504837105E-01 2.469687500000E+02-8.481877659907E-01-5.725595636897E-09
     1.828647599084E-10 5.210000000000E+02 2.035000000000E+03 0.000000000000E+00
     3.120000000000E+00 0.000000000000E+00-1.536682248116E-08-1.559965312481E-08
     6.048250000000E+05 0.000000000000E+00 0.000000000000E+00 0.000000000000E+00
E13 2019 01 12 23 40 00 3.816602402367E-04 4.689582056017E-13 0.000000000000E+00
     1.100000000000E+02 1.671875000000E+01 2.782973064856E-09-2.487341274857E+00
     7.208436727524E-07 3.415803657845E-04 5.034729838371E-06 5.440601222992E+03
     6.036000000000E+05-4.097819328308E-08-8.693922310475E-01-1.862645149231E-08
     9.851783963603E-01 2.455937500000E+02-1.509426761226E+00-5.597733168055E-09
     1.457203555520E-10 5.210000000000E+02 2.035000000000E+03 0.000000000000E+00
     3.120000000000E+00 4.550000000000E+02-4.656612873077E-09-5.587935447693E-09
     6.048250000000E+05 0.000000000000E+00 0.000000000000E+00 0.000000000000E+00
E14 2019 01 12 22 40 00 6.460821838118E-03-5.556444193644E-12 0.000000000000E+00
     1.040000000000E+02 4.112500000000E+01 6.827070089158E-09-7.159125682435E-01
     2.847984433174E-06 1.662490579765E-01 9.711831808090E-06 5.289327854156E+03
     6.000000000000E+05-2.371147274971E-06-1.465993684590E+00 1.396983861923E-06
     8.826247039703E-01 1.817500000000E+02 1.457289300074E+00-1.154012354961E-08
     3.528718413857E-10 5.210000000000E+02 2.035000000000E+03 0.000000000000E+00
     3.120000000000E+00 4.550000000000E+02 3.329478204250E-08 3.725290298462E-08
     6.048250000000E+05 0.000000000000E+00 0.000000000000E+00 0.000000000000E+00
E15 2019 01 12 23 40 00 9.231294970959E-04-1.065814103640E-12 0.000000000000E+00
     1.100000000000E+02 1.809375000000E+01 2.894763435659E-09-1.621881115984E+00
     7.767230272293E-07 3.883601166308E-04 5.450099706650E-06 5.440595016479E+03
     6.036000000000E+05-1.117587089539E-08-8.694035715885E-01-2.980232238770E-08
     9.851359073676E-01 2.339062500000E+02-1.592611974156E+00-5.618091158904E-09
     1.467918287546E-10 5.210000000000E+02 2.035000000000E+03 0.000000000000E+00
     3.120000000000E+00 4.550000000000E+02 1.396983861923E-09 1.164153218269E-09
     6.048250000000E+05 0.000000000000E+00 0.000000000000E+00 0.000000000000E+00
E18 2019 01 12 23 40 00 5.610778112896E-03-2.843592028512E-11 0.000000000000E+00
     1.100000000000E+02 5.678125000000E+01 4.290178703163E-09 2.880951091817E+00
     2.238899469376E-06 1.662892146269E-01 7.111579179764E-06 5.289394964218E+03
     6.036000000000E+05 2.564862370491E-06-1.448892280499E+00-8.940696716309E-07
     8.818393802870E-01 1.304062500000E+02 1.441901139827E+00-5.697737333630E-09
     2.142946405177E-12 5.210000000000E+02 2.035000000000E+03 0.000000000000E+00
     3.120000000000E+00 4.550000000000E+02 1.420266926289E-08 1.559965312481E-08
     6.048250000000E+05 0.000000000000E+00 0.000000000000E+00 0.000000000000E+00
E19 2019 01 12 23 40 00-9.166891686618E-06 3.126388037344E-13 0.000000000000E+00
     1.100000000000E+02-1.103125000000E+01 3.116201230861E-09 2.607024307221E+00
    -5.755573511124E-07 1.367605291307E-04 1.073069870472E-05 5.440619699478E+03
     6.036000000000E+05 5.587935447693E-09 1.237964762453E+00 1.862645149231E-09
     9.582241878036E-01 1.068125000000E+02 2.368817760139E+00-5.505586472633E-09
     9.821837690392E-11 5.210000000000E+02 2.035000000000E+03 0.000000000000E+00
     3.120000000000E+00 0.000000000000E+00-8.614733815193E-09-8.847564458847E-09
     6.048250000000E+05 0.000000000000E+00 0.000000000000E+00 0.000000000000E+00
E21 2019 01 12 23 40 00-5.141363362782E-04-1.875832822407E-12 0.000000000000E+00
     1.100000000000E+02 9.093750000000E+00 2.922978896661E-09-2.984941799859E+00
     3.371387720108E-07 4.800362512469E-05 6.407499313354E-06 5.440626150131E+03
     6.036000000000E+05-3.539025783539E-08-2.951999295603E+00-6.705522537231E-08
     9.896889443799E-01 2.180000000000E+02 3.100763534562E-01-5.547731085268E-09
    -2.871548182937E-10 5.210000000000E+02 2.035000000000E+03 0.000000000000E+00
     3.120000000000E+00 0.000000000000E+00-2.095475792885E-09-2.561137080193E-09
     6.048250000000E+05 0.000000000000E+00 0.000000000000E+00 0.000000000000E+00
E24 2019 01 12 23 00 00 6.289135839324E-03-1.968203378055E-11 0.000000000000E+00
     1.060000000000E+02 7.468750000000E+00 3.019768642628E-09 4.299132438408E-01
     3.837049007416E-07 4.807632649317E-04 6.048008799553E-06 5.440610446930E+03
     6.012000000000E+05 1.490116119385E-08-2.945917280982E+00 5.587935447693E-09
     9.876945627916E-01 2.226562500000E+02 5.040602694592E-01-5.592732959776E-09
    -3.239420649158E-10 5.210000000000E+02 2.035000000000E+03 0.000000000000E+00
     3.120000000000E+00 0.000000000000E+00 4.284083843231E-08 4.773028194904E-08
     6.048250000000E+05 0.000000000000E+00 0.000000000000E+00 0.000000000000E+00
E25 2019 01 12 23 40 00 1.925625023432E-03-1.136868377216E-11 0.000000000000E+00
     1.100000000000E+02 7.968750000000E+00 3.002267913652E-09 1.807706067219E+00
     3.520399332047E-07 1.868535764515E-04 5.982816219330E-06 5.440619993210E+03
     6.036000000000E+05-3.725290298462E-09-2.952008555874E+00 1.117587089539E-08
     9.896947258322E-01 2.272187500000E+02-1.339391411051E+00-5.566303287446E-09
    -2.839403986859E-10 5.210000000000E+02 2.035000000000E+03 0.000000000000E+00
     3.120000000000E+00 0.000000000000E+00-1.164153218269E-09-1.629814505577E-09
     6.048250000000E+05 0.000000000000E+00 0.000000000000E+00 0.000000000000E+00
